EYESAT A (AO-27)        
1 22825U 93061C   26203.17144757  .00000055  00000+0  37818-4 0  9997
2 22825  98.6862 270.5690 0008356   5.9572 354.1708 14.30950387712007
ITAMSAT (IO-26)         
1 22826U 93061D   26203.14041631  .00000045  00000+0  33907-4 0  9996
2 22826  98.6809 270.4591 0008532 348.6901  11.4089 14.31378090712312
RADIO ROSTO (RS15)      
1 23439U 94085A   26203.23685821 -.00000038  00000+0  12289-3 0  9991
2 23439  64.8140 246.5321 0157185 357.4121   2.5975 11.27583643299850
JAS-2 (FO-29)           
1 24278U 96046B   26203.13337786 -.00000047  00000+0 -11017-4 0  9995
2 24278  98.5216  47.2150 0350024   5.9531 354.5608 13.53275838477893
FORTE                   
1 24920U 97047A   26202.55892774  .00000100  00000+0  63462-4 0  9998
2 24920  69.9543 296.3837 0024179 235.6485 124.2350 14.27957210503596
TECHSAT 1B (GO-32)      
1 25397U 98043D   26202.41314108  .00000032  00000+0  34135-4 0  9998
2 25397  99.0091 196.0385 0002316 105.0328 255.1107 14.24434140456204
ISS (ZARYA)             
1 25544U 98067A   26203.15321183  .00008859  00000+0  16818-3 0  9993
2 25544  51.6313 127.0562 0006883 324.3803  35.6725 15.49090344577176
IMAGE                   
1 26113U 00017A   26201.47761102 -.00000064  00000+0  00000+0 0  9999
2 26113  94.2547 315.8054 7409307 284.0475  10.0856  1.68666956162060
CLUSTER II-FM7 (SAMBA)  
1 26410U 00041A   26201.60182196  .00010308 -30415-5  00000+0 0  9992
2 26410 149.8020  56.9135 9091714 274.4939 359.4480  0.44850593 20460
CLUSTER II-FM8 (TANGO)  
1 26464U 00045B   26202.20476271  .00010744 -27289-5  00000+0 0  9991
2 26464 149.9916  58.1960 9096215 275.6329   2.0911  0.44427498 20465
ODIN                    
1 26702U 01007A   26203.09632161  .00602498  15103-3  16233-2 0  9995
2 26702  97.3694 246.6856 0004574 165.2192 194.9218 15.94340343394927
OMNI-M1                 
1 26857U 01026A   26203.13534883  .00000012  00000+0  00000+0 0  9996
2 26857  44.8224 237.2081 0013443  58.6946 301.4898  3.92402296206941
PCSAT (NO-44)           
1 26931U 01043C   26203.29140487  .00000112  00000+0  72622-4 0  9993
2 26931  67.0503 153.4757 0005853 267.2123  92.8309 14.31967057295471
PROBA-1                 
1 26958U 01049B   26203.31442272  .00001982  00000+0  13036-3 0  9997
2 26958  97.9606 213.0770 0054941   5.7285 354.4558 15.07632660348914
SAUDISAT 1C (SO-50)     
1 27607U 02058C   26203.15188800  .00000775  00000+0  10888-3 0  9997
2 27607  64.5522  20.7986 0074307 256.0137 103.2699 14.83108446269641
CORIOLIS                
1 27640U 03001A   26203.00681337  .00000087  00000+0  61467-4 0  9996
2 27640  98.7139 209.3614 0015134 110.9935 249.2862 14.19953324219168
CUTE-1 (CO-55)          
1 27844U 03031E   26203.02043421  .00000248  00000+0  12599-3 0  9993
2 27844  98.6746 211.1424 0010865  85.1990 275.0430 14.24354732196635
CUBESAT XI-IV (CO-57)   
1 27848U 03031J   26202.46414799  .00000171  00000+0  94004-4 0  9991
2 27848  98.6777 210.2780 0010700 103.0346 257.2027 14.23636890196250
MOZHAETS 4 (RS22)       
1 27939U 03042A   26203.32729936  .00000530  00000+0  89811-4 0  9991
2 27939  98.3487  28.6814 0011767 151.1120 310.3090 14.73521633220727
