OBJECT_NAME,OBJECT_ID,EPOCH,MEAN_MOTION,ECCENTRICITY,INCLINATION,RA_OF_ASC_NODE,ARG_OF_PERICENTER,MEAN_ANOMALY,EPHEMERIS_TYPE,CLASSIFICATION_TYPE,NORAD_CAT_ID,ELEMENT_SET_NO,REV_AT_EPOCH,BSTAR,MEAN_MOTION_DOT,MEAN_MOTION_DDOT
EYESAT A (AO-27),1993-061C,2026-07-22T04:06:53.070048,14.30950387,.00083566,98.6862,270.5690,5.9572,354.1708,0,U,22825,999,71200,.37817786E-4,.55E-6,0
ITAMSAT (IO-26),1993-061D,2026-07-22T03:22:11.969184,14.31378090,.00085327,98.6809,270.4591,348.6901,11.4089,0,U,22826,999,71231,.33907411E-4,.45E-6,0
RADIO ROSTO (RS15),1994-085A,2026-07-22T05:41:04.549344,11.27583643,.01571857,64.8140,246.5321,357.4121,2.5975,0,U,23439,999,29985,.1228865E-3,-.38E-6,0
JAS-2 (FO-29),1996-046B,2026-07-22T03:12:03.847104,13.53275838,.03500248,98.5216,47.2150,5.9531,354.5608,0,U,24278,999,47789,-.11017009E-4,-.47E-6,0
FORTE,1997-047A,2026-07-21T13:24:51.356736,14.27957210,.00241796,69.9543,296.3837,235.6485,124.2350,0,U,24920,999,50359,.6346157E-4,.1E-5,0
TECHSAT 1B (GO-32),1998-043D,2026-07-21T09:54:55.389312,14.24434140,.00023162,99.0091,196.0385,105.0328,255.1107,0,U,25397,999,45620,.34134747E-4,.32E-6,0
ISS (ZARYA),1998-067A,2026-07-22T03:40:37.502112,15.49090344,.00068832,51.6313,127.0562,324.3803,35.6725,0,U,25544,999,57717,.16818085E-3,.8859E-4,0
IMAGE,2000-017A,2026-07-20T11:27:45.592128,1.68666956,.74093077,94.2547,315.8054,284.0475,10.0856,0,U,26113,999,16206,0,-.64E-6,0
CLUSTER II-FM7 (SAMBA),2000-041A,2026-07-20T14:26:37.417344,0.44850593,.90917143,149.8020,56.9135,274.4939,359.4480,0,U,26410,999,2046,0,.10308E-3,-.3041523E-5
CLUSTER II-FM8 (TANGO),2000-045B,2026-07-21T04:54:51.498144,0.44427498,.90962151,149.9916,58.1960,275.6329,2.0911,0,U,26464,999,2046,0,.10744E-3,-.2728858E-5
ODIN,2001-007A,2026-07-22T02:18:42.187104,15.94340343,.00045746,97.3694,246.6856,165.2192,194.9218,0,U,26702,999,39492,.16232712E-2,.602498E-2,.15102514E-3
OMNI-M1,2001-026A,2026-07-22T03:14:54.138912,3.92402296,.00134435,44.8224,237.2081,58.6946,301.4898,0,U,26857,999,20694,0,.12E-6,0
PCSAT (NO-44),2001-043C,2026-07-22T06:59:37.380768,14.31967057,.00058533,67.0503,153.4757,267.2123,92.8309,0,U,26931,999,29547,.7262209E-4,.112E-5,0
PROBA-1,2001-049B,2026-07-22T07:32:46.123008,15.07632660,.00549413,97.9606,213.0770,5.7285,354.4558,0,U,26958,999,34891,.13035659E-3,.1982E-4,0
SAUDISAT 1C (SO-50),2002-058C,2026-07-22T03:38:43.123200,14.83108446,.00743076,64.5522,20.7986,256.0137,103.2699,0,U,27607,999,26964,.1088751E-3,.775E-5,0
CORIOLIS,2003-001A,2026-07-22T00:09:48.675168,14.19953324,.00151344,98.7139,209.3614,110.9935,249.2862,0,U,27640,999,21916,.61467108E-4,.87E-6,0
CUTE-1 (CO-55),2003-031E,2026-07-22T00:29:25.515744,14.24354732,.00108651,98.6746,211.1424,85.1990,275.0430,0,U,27844,999,19663,.12598932E-3,.248E-5,0
CUBESAT XI-IV (CO-57),2003-031J,2026-07-21T11:08:22.386336,14.23636890,.00107004,98.6777,210.2780,103.0346,257.2027,0,U,27848,999,19625,.94003799E-4,.171E-5,0
MOZHAETS 4 (RS22),2003-042A,2026-07-22T07:51:18.664704,14.73521633,.0011767,98.3487,28.6814,151.1120,310.3090,0,U,27939,999,22072,.89811366E-4,.53E-5,0
